LEMUR-1                 
1 40044U 14033AL  26198.20513138  .00000727  00000+0  89273-4 0  9990
2 40044  97.7912 347.3507 0047562 341.2591  18.6872 14.85340073649924
LEMUR-2-GREENBERG       
1 42837U 17042N   26198.46334877  .00009265  00000+0  30030-3 0  9996
2 42837  97.3832  18.9701 0007286 249.8308 110.2151 15.32196006493023
LEMUR-2-ANDIS           
1 42838U 17042P   26198.48573422  .00011549  00000+0  33160-3 0  9995
2 42838  97.3686  19.2858 0007300 248.4684 111.5782 15.35982336493102
LEMUR-2-MONSON          
1 42839U 17042Q   26198.47305361  .00007291  00000+0  26317-3 0  9995
2 42839  97.4093  18.9043 0005447 235.4032 124.6694 15.28788408492798
LEMUR-2-FURIAUS         
1 42840U 17042R   26198.73919141  .00008477  00000+0  28385-3 0  9997
2 42840  97.3782  17.1311 0005770 318.6240  41.4564 15.31180191492888
LEMUR-2-PETERG          
1 42841U 17042S   26198.48794773  .00009793  00000+0  28995-3 0  9991
2 42841  97.3996  23.5949 0003443 210.5338 149.5706 15.35080210493083
LEMUR-2-DEMBITZ         
1 42842U 17042T   26198.23615465  .00008872  00000+0  29729-3 0  9998
2 42842  97.3830  19.6761 0005078 264.8229  95.2433 15.31146418492943
LEMUR-2-ZACHARY         
1 42845U 17042W   26198.69437697  .00029567  00000+0  47686-3 0  9996
2 42845  97.3573  31.0368 0002708 233.1685 126.9320 15.52870821493935
LEMUR-2-AMANDA-SVANTE   
1 48269U 21034B   26198.66573596  .00017621  00000+0  50350-3 0  9994
2 48269  97.5746 277.7938 0004673 136.9564 223.2045 15.36053849285733
LEMUR-2-SPECIAL-K       
1 48273U 21034F   26198.68400206  .00173412  00000+0  11187-2 0  9993
2 48273  97.5644 287.9978 0006295 213.2091 146.8779 15.75603869286470
LEMUR-2-EMBRIONOVIS     
1 56970U 23084AQ  26198.39171747  .00007659  00000+0  20525-3 0  9992
2 56970  97.6328 343.7724 0008544 198.0481 162.0461 15.38265409172324
LEMUR-2-DEVERILL-M-T    
1 57391U 23100F   26198.56822767  .00013814  00000+0  33582-3 0  9990
2 57391  99.4446 246.1369 0004715 287.0289  73.0435 15.41163271165923
LEMUR-2-BASS            
1 58259U 23174D   26198.67847306  .00009380  00000+0  20724-3 0  9990
2 58259  97.3842 283.8373 0007505  70.6104 289.5955 15.44044995150063
LEMUR-2-JK0903EM1407    
1 58336U 23174CJ  26198.69610764  .00015102  00000+0  24232-3 0  9991
2 58336  97.3921 290.0597 0003392  23.7354 336.4055 15.53151486150462
LEMUR-2-MJR092620       
1 58340U 23174CN  26198.72038756  .00010661  00000+0  22091-3 0  9991
2 58340  97.3972 289.3352 0005090  21.3895 338.7566 15.45919283150363
LEMUR-2-NIMBUS2000      
1 58899U 24022A   26198.54102454  .00011714  00000+0  28409-3 0  9999
2 58899  97.4077  48.9446 0008520  20.8268 339.3324 15.41176180136945
LEMUR-2-VALHALLA        
1 58900U 24022B   26198.54685166  .00008595  00000+0  21353-3 0  9992
2 58900  97.4075  48.9180 0008965  16.2163 343.9368 15.40531219136943
LEMUR-2-CAEL            
1 58903U 24022E   26198.53036876  .00009251  00000+0  21963-3 0  9999
2 58903  97.4057  49.8920 0006839   1.1188 359.0073 15.41903062137016
LEMUR-2-JOHNNYTRUONG    
1 59146U 24043BA  26198.39516333  .00026658  00000+0  29849-3 0  9998
2 59146  97.5399 352.0252 0003999  87.7380 272.4335 15.62680669132754
LEMUR-2-TOMATOKECHUP    
1 60471U 24149D   26197.48204929  .00005784  00000+0  16419-3 0  9998
2 60471  97.3796 279.6140 0003348 120.3105 239.8471 15.36597838106668
LEMUR-2-STELLA          
1 60533U 24149BT  26198.19094303  .00005866  00000+0  34171-3 0  9995
2 60533  97.6732 280.7889 0001224 121.9085 238.2264 15.12393884105030
LEMUR-2-MARHISYAM       
1 60536U 24149BW  26198.18263753  .00005814  00000+0  34433-3 0  9998
2 60536  97.6875 281.2593 0002291  66.0951 294.0519 15.11799755105012
LEMUR-2-AHMED-ASRAR     
1 60576U 24149DN  26198.71610473  .00006337  00000+0  35934-3 0  9994
2 60576  97.7001 284.0092 0001438 194.8543 165.2645 15.13338404105181
LEMUR-2-LLOYD           
1 60577U 24149DP  26198.46833073  .00004400  00000+0  27644-3 0  9998
2 60577  97.6738 279.6238 0004571  66.7022 293.4687 15.09772996104968
LEMUR-2-SQUIRRELCOMM    
1 60578U 24149DQ  26198.46042154  .00002465  00000+0  16679-3 0  9996
2 60578  97.6703 279.2816 0004033 316.9896  43.1016 15.07457788104964
LEMUR-2-SIERRINI        
1 60579U 24149DR  26198.47667112  .00005067  00000+0  30270-3 0  9999
2 60579  97.6836 281.2142 0006386  85.0986 275.0973 15.11538566105030
LEMUR-2-STAR-FOX        
1 62696U 25009CR  26198.19089499  .00003558  00000+0  26999-3 0  9998
2 62696  97.6903 279.5841 0001986  34.7534 325.3820 15.02855199 82065
LEMUR-2-ARIANNA         
1 62699U 25009CU  26198.18935917  .00003729  00000+0  28273-3 0  9992
2 62699  97.6845 279.3334 0002339  42.8979 317.2428 15.02857687 82062
LEMUR-2-ALISIA          
1 62706U 25009DB  26198.49411892  .00003823  00000+0  28718-3 0  9995
2 62706  97.6967 280.4652 0004589 122.6603 237.5065 15.03194149104718
